[Satellite]
VERSION=1.1
NAME=SL-16 R/B
NICKNAME=SL-16 R/B
TLE1=1 22566U 93016B   20158.15749036  .00000054  00000-0  52722-4 0  9992
TLE2=2 22566  71.0081 309.4604 0012525 280.7574  79.2139 14.14966989404741
STATUS=0
